NORAD_CAT_ID,OBJECT_NAME,OBJECT_TYPE,EPOCH,MEAN_MOTION,ECCENTRICITY,INCLINATION,RA_OF_ASC_NODE,ARG_OF_PERICENTER,MEAN_ANOMALY,BSTAR,MEAN_MOTION_DOT,MEAN_MOTION_DDOT,TLE_LINE0,TLE_LINE1,TLE_LINE2,SEMIMAJOR_AXIS,PERIOD,APOGEE,PERIGEE,DECAYED
53968.0,STARLINK-4629,PAYLOAD,2024-01-13 18:05:17,15.08843115,0.0001192,53.2157,152.2439,88.9644,271.1484,0.00016492,2.338e-05,0.0,0 STARLINK-4629,1 53968U 22125E   24013.75367945  .00002338  00000-0  16492-3 0  9990,2 53968  53.2157 152.2439 0001192  88.9644 271.1484 15.08843115 70745,6917.871,95.437,540.56,538.911,0.0
53968.0,STARLINK-4629,PAYLOAD,2024-01-14 14:45:18,15.08846058,0.0001269,53.2162,148.3758,93.8917,266.222,0.00013229,1.818e-05,0.0,0 STARLINK-4629,1 53968U 22125E   24014.61480272  .00001818  00000-0  13229-3 0  9992,2 53968  53.2162 148.3758 0001269  93.8917 266.2220 15.08846058 70803,6917.862,95.437,540.605,538.849,0.0
53968.0,STARLINK-4629,PAYLOAD,2024-01-14 16:20:42,15.08843842,0.0001275,53.2156,148.0808,84.5643,275.5494,0.00013501,1.862e-05,0.0,0 STARLINK-4629,1 53968U 22125E   24014.68104439  .00001862  00000-0  13501-3 0  9999,2 53968  53.2156 148.0808 0001275  84.5643 275.5494 15.08843842 70881,6917.869,95.437,540.616,538.852,0.0
53968.0,STARLINK-4629,PAYLOAD,2024-01-15 08:14:33,15.08840252,0.0001224,53.216,145.1081,81.984,278.1291,0.00010762,1.425e-05,0.0,0 STARLINK-4629,1 53968U 22125E   24015.34344700  .00001425  00000-0  10762-3 0  9991,2 53968  53.2160 145.1081 0001224  81.9840 278.1291 15.08840252 70988,6917.88,95.438,540.591,538.898,0.0
53968.0,STARLINK-4629,PAYLOAD,2024-01-15 14:36:06,15.0884362,0.0001477,53.2161,143.9194,72.5866,287.5288,0.00010581,1.397e-05,0.0,0 STARLINK-4629,1 53968U 22125E   24015.60840524  .00001397  00000-0  10581-3 0  9992,2 53968  53.2161 143.9194 0001477  72.5866 287.5288 15.08843620 70953,6917.869,95.437,540.756,538.713,0.0
53968.0,STARLINK-4629,PAYLOAD,2024-01-15 16:11:28,15.08849743,0.000125,53.2164,143.6193,92.9868,267.1267,0.00019127,2.758e-05,0.0,0 STARLINK-4629,1 53968U 22125E   24015.67463798  .00002758  00000-0  19127-3 0  9990,2 53968  53.2164 143.6193 0001250  92.9868 267.1267 15.08849743 71032,6917.851,95.437,540.58,538.851,0.0
53968.0,STARLINK-4629,PAYLOAD,2024-01-16 08:05:20,15.08847216,0.0001309,53.2169,140.649,72.0219,288.0915,0.00019064,2.748e-05,0.0,0 STARLINK-4629,1 53968U 22125E   24016.33703736  .00002748  00000-0  19064-3 0  9992,2 53968  53.2169 140.6490 0001309  72.0219 288.0915 15.08847216 71134,6917.858,95.437,540.629,538.818,0.0
53968.0,STARLINK-4629,PAYLOAD,2024-01-16 14:26:52,15.08857719,0.0001949,53.2172,139.4602,55.0466,305.0709,0.00012308,1.672e-05,0.0,0 STARLINK-4629,1 53968U 22125E   24016.60199442  .00001672  00000-0  12308-3 0  9994,2 53968  53.2172 139.4602 0001949  55.0466 305.0709 15.08857719 71101,6917.826,95.436,541.04,538.343,0.0
53968.0,STARLINK-4629,PAYLOAD,2024-01-16 16:02:14,15.08864883,0.0001461,53.2168,139.1592,81.0715,279.0443,0.00016291,2.307e-05,0.0,0 STARLINK-4629,1 53968U 22125E   24016.66822533  .00002307  00000-0  16291-3 0  9995,2 53968  53.2168 139.1592 0001461  81.0715 279.0443 15.08864883 71189,6917.804,95.436,540.68,538.659,0.0
53968.0,STARLINK-4629,PAYLOAD,2024-01-17 11:06:54,15.08832235,0.0001286,53.2172,135.5931,88.5819,271.532,-9.0196e-05,-1.723e-05,0.0,0 STARLINK-4629,1 53968U 22125E   24017.46313399 -.00001723  00000-0 -90196-4 0  9999,2 53968  53.2172 135.5931 0001286  88.5819 271.5320 15.08832235 71304,6917.904,95.438,540.659,538.879,0.0
53968.0,STARLINK-4629,PAYLOAD,2024-01-17 14:17:41,15.0883222,0.0001296,53.2174,135.0011,75.5481,284.5655,-0.0001044,-1.949e-05,0.0,0 STARLINK-4629,1 53968U 22125E   24017.59561574 -.00001949  00000-0 -10440-3 0  9996,2 53968  53.2174 135.0011 0001296  75.5481 284.5655 15.08832220 71255,6917.904,95.438,540.666,538.873,0.0
53968.0,STARLINK-4629,PAYLOAD,2024-01-18 10:57:41,15.08841869,0.0001181,53.2176,131.1286,92.0765,268.0362,-0.00010064,-1.889e-05,0.0,0 STARLINK-4629,1 53968U 22125E   24018.45673135 -.00001889  00000-0 -10064-3 0  9994,2 53968  53.2176 131.1286 0001181  92.0765 268.0362 15.08841869 71453,6917.875,95.437,540.557,538.923,0.0
53968.0,STARLINK-4629,PAYLOAD,2024-01-18 14:08:27,15.08846713,0.0001444,53.2165,130.5333,97.0218,263.0938,5.932e-05,6.56e-06,0.0,0 STARLINK-4629,1 53968U 22125E   24018.58920349  .00000656  00000-0  59320-4 0  9998,2 53968  53.2165 130.5333 0001444  97.0218 263.0938 15.08846713 71409,6917.86,95.437,540.724,538.726,0.0
53968.0,STARLINK-4629,PAYLOAD,2024-01-19 12:23:51,15.08842597,0.0001373,53.2161,126.3743,96.3813,263.7335,0.00027592,4.106e-05,0.0,0 STARLINK-4629,1 53968U 22125E   24019.51657122  .00004106  00000-0  27592-3 0  9997,2 53968  53.2161 126.3743 0001373  96.3813 263.7335 15.08842597 71614,6917.872,95.437,540.687,538.788,0.0
53968.0,STARLINK-4629,PAYLOAD,2024-01-19 13:59:14,15.08845363,0.0001464,53.2167,126.0767,101.9399,258.1757,0.00030788,4.616e-05,0.0,0 STARLINK-4629,1 53968U 22125E   24019.58280956  .00004616  00000-0  30788-3 0  9998,2 53968  53.2167 126.0767 0001464 101.9399 258.1757 15.08845363 71559,6917.864,95.437,540.742,538.716,0.0
53968.0,STARLINK-4629,PAYLOAD,2024-01-19 17:10:00,15.08848641,0.0001477,53.2161,125.4783,105.1764,254.9392,0.00033231,5.006e-05,0.0,0 STARLINK-4629,1 53968U 22125E   24019.71528717  .00005006  00000-0  33231-3 0  9993,2 53968  53.2161 125.4783 0001477 105.1764 254.9392 15.08848641 71573,6917.854,95.437,540.741,538.697,0.0
53968.0,STARLINK-4629,PAYLOAD,2024-01-20 10:39:15,15.08841228,0.0001493,53.2153,122.2017,114.1573,245.9575,-4.0776e-05,-9.37e-06,0.0,0 STARLINK-4629,1 53968U 22125E   24020.44393032 -.00000937  00000-0 -40776-4 0  9998,2 53968  53.2153 122.2017 0001493 114.1573 245.9575 15.08841228 71752,6917.877,95.437,540.774,538.709,0.0
53968.0,STARLINK-4629,PAYLOAD,2024-01-20 13:50:02,15.0883944,0.0001389,53.217,121.6147,99.2778,260.8371,7.2641e-06,-1.72e-06,0.0,0 STARLINK-4629,1 53968U 22125E   24020.57641326 -.00000172  00000-0  72641-5 0  9991,2 53968  53.2170 121.6147 0001389  99.2778 260.8371 15.08839440 71700,6917.882,95.438,540.708,538.786,0.0
53968.0,STARLINK-4629,PAYLOAD,2024-01-21 12:05:25,15.0884522,0.0001434,53.2178,117.4504,105.5998,254.5153,8.3582e-05,1.043e-05,0.0,0 STARLINK-4629,1 53968U 22125E   24021.50377185  .00001043  00000-0  83582-4 0  9996,2 53968  53.2178 117.4504 0001434 105.5998 254.5153 15.08845220 71918,6917.864,95.437,540.721,538.737,0.0
53968.0,STARLINK-4629,PAYLOAD,2024-01-21 16:51:35,15.08850198,0.0001292,53.2167,116.5581,98.7011,261.4127,0.00027016,4.015e-05,0.0,0 STARLINK-4629,1 53968U 22125E   24021.70248999  .00004015  00000-0  27016-3 0  9999,2 53968  53.2167 116.5581 0001292  98.7011 261.4127 15.08850198 71875,6917.849,95.437,540.608,538.82,0.0
53968.0,STARLINK-4629,PAYLOAD,2024-01-22 05:34:40,15.08835971,0.0001167,53.217,114.1761,100.5684,259.544,8.8406e-05,1.119e-05,0.0,0 STARLINK-4629,1 53968U 22125E   24022.23241693  .00001119  00000-0  88406-4 0  9995,2 53968  53.2170 114.1761 0001167 100.5684 259.5440 15.08835971 71959,6917.893,95.438,540.565,538.95,0.0
53968.0,STARLINK-4629,PAYLOAD,2024-01-22 11:56:13,15.08844134,0.0001073,53.2155,112.9886,102.2031,257.9082,0.00020633,2.998e-05,0.0,0 STARLINK-4629,1 53968U 22125E   24022.49737342  .00002998  00000-0  20633-3 0  9997,2 53968  53.2155 112.9886 0001073 102.2031 257.9082 15.08844134 72065,6917.868,95.437,540.475,538.99,0.0
53968.0,STARLINK-4629,PAYLOAD,2024-01-22 13:31:36,15.08844567,0.000102,53.2156,112.6933,86.5215,273.5893,0.00021763,3.178e-05,0.0,0 STARLINK-4629,1 53968U 22125E   24022.56361394  .00003178  00000-0  21763-3 0  9991,2 53968  53.2156 112.6933 0001020  86.5215 273.5893 15.08844567 72004,6917.866,95.437,540.437,539.026,0.0
53968.0,STARLINK-4629,PAYLOAD,2024-01-23 11:47:00,15.0884527,0.0001202,53.2152,108.5313,69.9559,290.1563,0.00016432,2.329e-05,0.0,0 STARLINK-4629,1 53968U 22125E   24023.49097510  .00002329  00000-0  16432-3 0  9994,2 53968  53.2152 108.5313 0001202  69.9559 290.1563 15.08845270 72218,6917.864,95.437,540.561,538.898,0.0
53968.0,STARLINK-4629,PAYLOAD,2024-01-23 13:22:23,15.08850233,0.0001836,53.2173,108.2329,59.1712,300.9461,0.00030357,4.548e-05,0.0,0 STARLINK-4629,1 53968U 22125E   24023.55721506  .00004548  00000-0  30357-3 0  9997,2 53968  53.2173 108.2329 0001836  59.1712 300.9461 15.08850233 72155,6917.849,95.437,540.984,538.444,0.0
53968.0,STARLINK-4629,PAYLOAD,2024-01-24 11:37:47,15.0884017,0.0001547,53.2159,104.0708,60.8054,299.3093,0.00014389,2.003e-05,0.0,0 STARLINK-4629,1 53968U 22125E   24024.48458119  .00002003  00000-0  14389-3 0  9998,2 53968  53.2159 104.0708 0001547  60.8054 299.3093 15.08840170 72365,6917.88,95.438,540.815,538.675,0.0
53968.0,STARLINK-4629,PAYLOAD,2024-01-25 11:28:34,15.08844463,0.0001368,53.2166,99.6148,81.5562,278.5585,0.00022083,3.229e-05,0.0,0 STARLINK-4629,1 53968U 22125E   24025.47818150  .00003229  00000-0  22083-3 0  9994,2 53968  53.2166  99.6148 0001368  81.5562 278.5585 15.08844463 72448,6917.867,95.437,540.678,538.785,0.0
53968.0,STARLINK-4629,PAYLOAD,2024-01-26 11:19:21,15.08851541,0.0001581,53.2175,95.1548,94.7854,265.3319,0.00031357,4.708e-05,0.0,0 STARLINK-4629,1 53968U 22125E   24026.47177736  .00004708  00000-0  31357-3 0  9990,2 53968  53.2175  95.1548 0001581  94.7854 265.3319 15.08851541 72668,6917.845,95.437,540.804,538.616,0.0
53968.0,STARLINK-4629,PAYLOAD,2024-01-27 11:10:08,15.08845357,0.0001742,53.2173,90.6952,113.2252,246.8923,0.00010803,1.432e-05,0.0,0 STARLINK-4629,1 53968U 22125E   24027.46537838  .00001432  00000-0  10803-3 0  9997,2 53968  53.2173  90.6952 0001742 113.2252 246.8923 15.08845357 72813,6917.864,95.437,540.934,538.524,0.0
53968.0,STARLINK-4629,PAYLOAD,2024-01-28 04:39:23,15.08836434,0.0001834,53.217,87.4185,96.7327,263.3873,-4.7606e-05,-1.046e-05,0.0,0 STARLINK-4629,1 53968U 22125E   24028.19402293 -.00001046  00000-0 -47606-4 0  9999,2 53968  53.2170  87.4185 0001834  96.7327 263.3873 15.08836434 72928,6917.891,95.438,541.025,538.488,0.0
